{
    "links": {
        "self": "http://www.neowsapp.com/rest/v1/neo/3735991?api_key=iIulBulltgU6a56xZRHN4H3l9WmuAYTsLGpBGhQ2"
    },
    "id": "3735991",
    "neo_reference_id": "3735991",
    "name": "(2015 XE55)",
    "designation": "2015 XE55",
    "nasa_jpl_url": "http://ssd.jpl.nasa.gov/sbdb.cgi?sstr=3735991",
    "absolute_magnitude_h": 26.0,
    "estimated_diameter": {
        "kilometers": {
            "estimated_diameter_min": 0.0167708462,
            "estimated_diameter_max": 0.0375007522
        },
        "meters": {
            "estimated_diameter_min": 16.7708462163,
            "estimated_diameter_max": 37.5007521798
        },
        "miles": {
            "estimated_diameter_min": 0.0104209175,
            "estimated_diameter_max": 0.0233018799
        },
        "feet": {
            "estimated_diameter_min": 55.0224631002,
            "estimated_diameter_max": 123.0339677816
        }
    },
    "is_potentially_hazardous_asteroid": false,
    "close_approach_data": [
        {
            "close_approach_date": "1955-07-21",
            "close_approach_date_full": "1955-Jul-21 05:21",
            "epoch_date_close_approach": -455999940000,
            "relative_velocity": {
                "kilometers_per_second": "7.5710166341",
                "kilometers_per_hour": "27255.6598825815",
                "miles_per_hour": "16935.6071087074"
            },
            "miss_distance": {
                "astronomical": "0.0660773886",
                "lunar": "25.7041041654",
                "kilometers": "9885036.589722282",
                "miles": "6142276.9156882116"
            },
            "orbiting_body": "Earth"
        },
        {
            "close_approach_date": "2012-07-12",
            "close_approach_date_full": "2012-Jul-12 19:48",
            "epoch_date_close_approach": 1342122480000,
            "relative_velocity": {
                "kilometers_per_second": "9.9327896483",
                "kilometers_per_hour": "35758.0427338964",
                "miles_per_hour": "22218.6571642924"
            },
            "miss_distance": {
                "astronomical": "0.0768962308",
                "lunar": "29.9126337812",
                "kilometers": "11503512.338708396",
                "miles": "7147951.1123760248"
            },
            "orbiting_body": "Earth"
        },
        {
            "close_approach_date": "2015-06-03",
            "close_approach_date_full": "2015-Jun-03 21:14",
            "epoch_date_close_approach": 1433366040000,
            "relative_velocity": {
                "kilometers_per_second": "6.4613371148",
                "kilometers_per_hour": "23260.8136132077",
                "miles_per_hour": "14453.3649920512"
            },
            "miss_distance": {
                "astronomical": "0.4410948961",
                "lunar": "171.5859145829",
                "kilometers": "65986856.924431307",
                "miles": "41002331.5894617566"
            },
            "orbiting_body": "Earth"
        },
        {
            "close_approach_date": "2015-11-16",
            "close_approach_date_full": "2015-Nov-16 22:39",
            "epoch_date_close_approach": 1447713540000,
            "relative_velocity": {
                "kilometers_per_second": "8.9765703464",
                "kilometers_per_hour": "32315.6532470079",
                "miles_per_hour": "20079.6902078422"
            },
            "miss_distance": {
                "astronomical": "0.0168974413",
                "lunar": "6.5731046657",
                "kilometers": "2527821.226930031",
                "miles": "1570715.2753791878"
            },
            "orbiting_body": "Earth"
        }
    ],
    "orbital_data": {
        "orbit_id": "3",
        "orbit_determination_date": "2017-04-06 08:30:14",
        "first_observation_date": "2015-12-02",
        "last_observation_date": "2015-12-06",
        "data_arc_in_days": 4,
        "observations_used": 15,
        "orbit_uncertainty": "8",
        "minimum_orbit_intersection": ".0127602",
        "jupiter_tisserand_invariant": "4.843",
        "epoch_osculation": "2457359.5",
        "eccentricity": ".3370881303027237",
        "semi_major_axis": "1.337411840788173",
        "inclination": "4.221145040323373",
        "ascending_node_longitude": "242.4138149690902",
        "orbital_period": "564.9319962708621",
        "perihelion_distance": ".8865861839321634",
        "perihelion_argument": "115.5413964635587",
        "aphelion_distance": "1.788237497644182",
        "perihelion_time": "2457299.452703032830",
        "mean_anomaly": "38.26483019350298",
        "mean_motion": ".6372448407531771",
        "equinox": "J2000",
        "orbit_class": {
            "orbit_class_type": "APO",
            "orbit_class_description": "Near-Earth asteroid orbits which cross the Earth’s orbit similar to that of 1862 Apollo",
            "orbit_class_range": "a (semi-major axis) > 1.0 AU; q (perihelion) < 1.017 AU"
        }
    },
    "is_sentry_object": false
}